{
  "type": "FeatureCollection",
  "features": [
    {
      "type": "Feature",
      "properties": {
        "id": "nh13_pasighat_roing",
        "name": "NH-13 Pasighat to Roing Dibang Valley Feeder",
        "highway": "NH-13",
        "distance_km": 120.1,
        "duration_hrs": 2.22,
        "point_count": 653
      },
      "geometry": {
        "type": "LineString",
        "coordinates": [
          [
            95.332435,
            28.066474
          ],
          [
            95.33198,
            28.06783
          ],
          [
            95.331759,
            28.068605
          ],
          [
            95.331697,
            28.068823
          ],
          [
            95.331161,
            28.070703
          ],
          [
            95.331135,
            28.070795
          ],
          [
            95.330894,
            28.071601
          ],
          [
            95.330735,
            28.072132
          ],
          [
            95.330324,
            28.073507
          ],
          [
            95.330249,
            28.073731
          ],
          [
            95.330131,
            28.073889
          ],
          [
            95.329915,
            28.074042
          ],
          [
            95.329839,
            28.074111
          ],
          [
            95.329688,
            28.07419
          ],
          [
            95.329563,
            28.074232
          ],
          [
            95.329395,
            28.074237
          ],
          [
            95.329234,
            28.074216
          ],
          [
            95.32901,
            28.074118
          ],
          [
            95.32795,
            28.073658
          ],
          [
            95.326768,
            28.073176
          ],
          [
            95.326624,
            28.073104
          ],
          [
            95.325314,
            28.072445
          ],
          [
            95.324935,
            28.072254
          ],
          [
            95.322576,
            28.071069
          ],
          [
            95.319994,
            28.076683
          ],
          [
            95.319568,
            28.077204
          ],
          [
            95.319403,
            28.077342
          ],
          [
            95.318475,
            28.078111
          ],
          [
            95.318202,
            28.078334
          ],
          [
            95.317845,
            28.078516
          ],
          [
            95.317227,
            28.078808
          ],
          [
            95.316639,
            28.079048
          ],
          [
            95.316372,
            28.079242
          ],
          [
            95.316273,
            28.079319
          ],
          [
            95.316096,
            28.079618
          ],
          [
            95.316065,
            28.079812
          ],
          [
            95.315956,
            28.080097
          ],
          [
            95.315852,
            28.080448
          ],
          [
            95.315786,
            28.080849
          ],
          [
            95.315766,
            28.081146
          ],
          [
            95.315779,
            28.081456
          ],
          [
            95.315821,
            28.08173
          ],
          [
            95.315842,
            28.081956
          ],
          [
            95.315948,
            28.083074
          ],
          [
            95.316013,
            28.083729
          ],
          [
            95.316064,
            28.084238
          ],
          [
            95.31624,
            28.085592
          ],
          [
            95.31625,
            28.08567
          ],
          [
            95.316264,
            28.086271
          ],
          [
            95.316259,
            28.086582
          ],
          [
            95.316217,
            28.086742
          ],
          [
            95.316122,
            28.086835
          ],
          [
            95.316008,
            28.086931
          ],
          [
            95.315983,
            28.08694
          ],
          [
            95.315914,
            28.086965
          ],
          [
            95.31582,
            28.086999
          ],
          [
            95.315348,
            28.087078
          ],
          [
            95.31444,
            28.087218
          ],
          [
            95.313873,
            28.087304
          ],
          [
            95.31376,
            28.087321
          ],
          [
            95.313304,
            28.087388
          ],
          [
            95.31156,
            28.087735
          ],
          [
            95.309036,
            28.088128
          ],
          [
            95.308562,
            28.088201
          ],
          [
            95.30564,
            28.088883
          ],
          [
            95.304026,
            28.089361
          ],
          [
            95.302833,
            28.089822
          ],
          [
            95.302853,
            28.090243
          ],
          [
            95.303199,
            28.092486
          ],
          [
            95.30371,
            28.095427
          ],
          [
            95.304936,
            28.102731
          ],
          [
            95.305431,
            28.105455
          ],
          [
            95.305684,
            28.106816
          ],
          [
            95.305809,
            28.107541
          ],
          [
            95.305891,
            28.107813
          ],
          [
            95.305993,
            28.108001
          ],
          [
            95.306122,
            28.108178
          ],
          [
            95.306248,
            28.108332
          ],
          [
            95.306352,
            28.108423
          ],
          [
            95.306422,
            28.108485
          ],
          [
            95.306846,
            28.108726
          ],
          [
            95.307304,
            28.10891
          ],
          [
            95.308247,
            28.109208
          ],
          [
            95.308653,
            28.109317
          ],
          [
            95.30912,
            28.109416
          ],
          [
            95.309165,
            28.109426
          ],
          [
            95.310345,
            28.10962
          ],
          [
            95.311658,
            28.10985
          ],
          [
            95.312031,
            28.109982
          ],
          [
            95.312285,
            28.110149
          ],
          [
            95.31235,
            28.110203
          ],
          [
            95.312593,
            28.110406
          ],
          [
            95.312968,
            28.110744
          ],
          [
            95.31394,
            28.11163
          ],
          [
            95.317258,
            28.114723
          ],
          [
            95.3183,
            28.115625
          ],
          [
            95.318962,
            28.116157
          ],
          [
            95.319608,
            28.116776
          ],
          [
            95.321808,
            28.119048
          ],
          [
            95.327227,
            28.124228
          ],
          [
            95.3446,
            28.139557
          ],
          [
            95.345789,
            28.140753
          ],
          [
            95.348099,
            28.141853
          ],
          [
            95.351765,
            28.144436
          ],
          [
            95.354302,
            28.144868
          ],
          [
            95.355947,
            28.14568
          ],
          [
            95.359967,
            28.147641
          ],
          [
            95.361502,
            28.148896
          ],
          [
            95.362832,
            28.150279
          ],
          [
            95.363285,
            28.150457
          ],
          [
            95.364227,
            28.150667
          ],
          [
            95.370605,
            28.150981
          ],
          [
            95.372678,
            28.151286
          ],
          [
            95.375764,
            28.152121
          ],
          [
            95.377041,
            28.152404
          ],
          [
            95.377471,
            28.15244
          ],
          [
            95.3781,
            28.152279
          ],
          [
            95.379845,
            28.151622
          ],
          [
            95.385101,
            28.149775
          ],
          [
            95.38575,
            28.149598
          ],
          [
            95.385919,
            28.149594
          ],
          [
            95.386066,
            28.149622
          ],
          [
            95.386377,
            28.14985
          ],
          [
            95.38678,
            28.150218
          ],
          [
            95.394192,
            28.15789
          ],
          [
            95.399101,
            28.161016
          ],
          [
            95.404335,
            28.165267
          ],
          [
            95.404532,
            28.165449
          ],
          [
            95.404791,
            28.165619
          ],
          [
            95.405047,
            28.165758
          ],
          [
            95.405382,
            28.165844
          ],
          [
            95.405877,
            28.165942
          ],
          [
            95.408095,
            28.166322
          ],
          [
            95.407158,
            28.163946
          ],
          [
            95.405664,
            28.162452
          ],
          [
            95.405046,
            28.160985
          ],
          [
            95.404689,
            28.154117
          ],
          [
            95.404762,
            28.153818
          ],
          [
            95.404917,
            28.153611
          ],
          [
            95.4125,
            28.146526
          ],
          [
            95.412979,
            28.14611
          ],
          [
            95.41896,
            28.140923
          ],
          [
            95.422013,
            28.136197
          ],
          [
            95.423007,
            28.135602
          ],
          [
            95.434011,
            28.122799
          ],
          [
            95.440577,
            28.115379
          ],
          [
            95.44505,
            28.111873
          ],
          [
            95.449913,
            28.102887
          ],
          [
            95.452611,
            28.100632
          ],
          [
            95.459856,
            28.093931
          ],
          [
            95.461222,
            28.091013
          ],
          [
            95.461238,
            28.090706
          ],
          [
            95.461159,
            28.090403
          ],
          [
            95.461128,
            28.090178
          ],
          [
            95.461246,
            28.090055
          ],
          [
            95.461535,
            28.089852
          ],
          [
            95.462217,
            28.089438
          ],
          [
            95.462332,
            28.089327
          ],
          [
            95.462891,
            28.08806
          ],
          [
            95.467577,
            28.081797
          ],
          [
            95.472794,
            28.077475
          ],
          [
            95.473085,
            28.077158
          ],
          [
            95.473359,
            28.076893
          ],
          [
            95.473605,
            28.076458
          ],
          [
            95.47425,
            28.072965
          ],
          [
            95.475939,
            28.070111
          ],
          [
            95.476127,
            28.069808
          ],
          [
            95.476245,
            28.069476
          ],
          [
            95.47625,
            28.068809
          ],
          [
            95.476093,
            28.068057
          ],
          [
            95.475279,
            28.06598
          ],
          [
            95.470487,
            28.056489
          ],
          [
            95.46999,
            28.051696
          ],
          [
            95.465589,
            28.048595
          ],
          [
            95.463826,
            28.047568
          ],
          [
            95.462998,
            28.046277
          ],
          [
            95.463778,
            28.038789
          ],
          [
            95.463991,
            28.03268
          ],
          [
            95.465076,
            28.028813
          ],
          [
            95.465078,
            28.028381
          ],
          [
            95.464969,
            28.027885
          ],
          [
            95.462201,
            28.023254
          ],
          [
            95.462074,
            28.022872
          ],
          [
            95.462074,
            28.022872
          ],
          [
            95.462126,
            28.02207
          ],
          [
            95.462748,
            28.020449
          ],
          [
            95.463809,
            28.018437
          ],
          [
            95.463467,
            28.011718
          ],
          [
            95.463564,
            28.010969
          ],
          [
            95.464077,
            28.010078
          ],
          [
            95.464306,
            28.009605
          ],
          [
            95.464529,
            28.009135
          ],
          [
            95.464691,
            28.008752
          ],
          [
            95.464844,
            28.008243
          ],
          [
            95.465061,
            28.007717
          ],
          [
            95.465113,
            28.007635
          ],
          [
            95.465194,
            28.007578
          ],
          [
            95.470126,
            28.00528
          ],
          [
            95.472067,
            28.002579
          ],
          [
            95.472121,
            28.002444
          ],
          [
            95.472133,
            28.002312
          ],
          [
            95.472043,
            27.999918
          ],
          [
            95.472083,
            27.999752
          ],
          [
            95.472185,
            27.999612
          ],
          [
            95.473557,
            27.99875
          ],
          [
            95.474755,
            27.998223
          ],
          [
            95.474874,
            27.998141
          ],
          [
            95.474995,
            27.998014
          ],
          [
            95.475703,
            27.996912
          ],
          [
            95.475915,
            27.9967
          ],
          [
            95.47739,
            27.995654
          ],
          [
            95.477633,
            27.995554
          ],
          [
            95.477831,
            27.995503
          ],
          [
            95.478336,
            27.995424
          ],
          [
            95.478787,
            27.995341
          ],
          [
            95.482575,
            27.995034
          ],
          [
            95.4827,
            27.995006
          ],
          [
            95.482797,
            27.994941
          ],
          [
            95.483787,
            27.994143
          ],
          [
            95.484069,
            27.993655
          ],
          [
            95.484463,
            27.99307
          ],
          [
            95.484753,
            27.992418
          ],
          [
            95.484785,
            27.992255
          ],
          [
            95.484777,
            27.992097
          ],
          [
            95.484581,
            27.991474
          ],
          [
            95.484501,
            27.991105
          ],
          [
            95.48457,
            27.99074
          ],
          [
            95.484721,
            27.990205
          ],
          [
            95.484786,
            27.989805
          ],
          [
            95.484788,
            27.989563
          ],
          [
            95.484792,
            27.98918
          ],
          [
            95.484765,
            27.989009
          ],
          [
            95.483682,
            27.986679
          ],
          [
            95.483664,
            27.986299
          ],
          [
            95.483733,
            27.98588
          ],
          [
            95.484929,
            27.978757
          ],
          [
            95.484865,
            27.978398
          ],
          [
            95.484435,
            27.977042
          ],
          [
            95.484429,
            27.976799
          ],
          [
            95.484505,
            27.976605
          ],
          [
            95.485223,
            27.975116
          ],
          [
            95.485265,
            27.974985
          ],
          [
            95.485289,
            27.974821
          ],
          [
            95.485241,
            27.974556
          ],
          [
            95.481185,
            27.968342
          ],
          [
            95.481072,
            27.968016
          ],
          [
            95.480982,
            27.967657
          ],
          [
            95.480731,
            27.962835
          ],
          [
            95.479369,
            27.954636
          ],
          [
            95.479334,
            27.954024
          ],
          [
            95.479464,
            27.953385
          ],
          [
            95.483239,
            27.944164
          ],
          [
            95.491335,
            27.919905
          ],
          [
            95.491399,
            27.919776
          ],
          [
            95.491555,
            27.919586
          ],
          [
            95.49222,
            27.918691
          ],
          [
            95.492409,
            27.918425
          ],
          [
            95.492531,
            27.918113
          ],
          [
            95.493143,
            27.915496
          ],
          [
            95.493245,
            27.915232
          ],
          [
            95.493443,
            27.914937
          ],
          [
            95.494999,
            27.913543
          ],
          [
            95.495554,
            27.912838
          ],
          [
            95.496029,
            27.912083
          ],
          [
            95.496312,
            27.911738
          ],
          [
            95.496493,
            27.911401
          ],
          [
            95.497051,
            27.909474
          ],
          [
            95.497678,
            27.908277
          ],
          [
            95.497976,
            27.907964
          ],
          [
            95.498429,
            27.907535
          ],
          [
            95.498603,
            27.90733
          ],
          [
            95.498703,
            27.90708
          ],
          [
            95.498799,
            27.906478
          ],
          [
            95.498864,
            27.905641
          ],
          [
            95.499253,
            27.904506
          ],
          [
            95.499601,
            27.903626
          ],
          [
            95.499645,
            27.903411
          ],
          [
            95.499651,
            27.903279
          ],
          [
            95.499634,
            27.903185
          ],
          [
            95.499282,
            27.902571
          ],
          [
            95.49896,
            27.902031
          ],
          [
            95.498775,
            27.901728
          ],
          [
            95.498743,
            27.901561
          ],
          [
            95.498757,
            27.90136
          ],
          [
            95.498794,
            27.901249
          ],
          [
            95.498864,
            27.901159
          ],
          [
            95.499172,
            27.900898
          ],
          [
            95.499412,
            27.900501
          ],
          [
            95.499458,
            27.900436
          ],
          [
            95.499591,
            27.900255
          ],
          [
            95.500106,
            27.899931
          ],
          [
            95.500572,
            27.899649
          ],
          [
            95.50094,
            27.899099
          ],
          [
            95.501289,
            27.898565
          ],
          [
            95.501468,
            27.898411
          ],
          [
            95.501688,
            27.898357
          ],
          [
            95.502174,
            27.898354
          ],
          [
            95.502664,
            27.898354
          ],
          [
            95.502992,
            27.898248
          ],
          [
            95.503523,
            27.898008
          ],
          [
            95.503901,
            27.897885
          ],
          [
            95.505089,
            27.897567
          ],
          [
            95.505738,
            27.897231
          ],
          [
            95.506049,
            27.897084
          ],
          [
            95.506154,
            27.896939
          ],
          [
            95.506855,
            27.896513
          ],
          [
            95.507047,
            27.896029
          ],
          [
            95.507391,
            27.89583
          ],
          [
            95.508071,
            27.895445
          ],
          [
            95.508156,
            27.895429
          ],
          [
            95.508224,
            27.895445
          ],
          [
            95.508294,
            27.895488
          ],
          [
            95.508371,
            27.895526
          ],
          [
            95.508466,
            27.895536
          ],
          [
            95.508568,
            27.895504
          ],
          [
            95.508654,
            27.895461
          ],
          [
            95.508712,
            27.895401
          ],
          [
            95.50873,
            27.895331
          ],
          [
            95.508754,
            27.89527
          ],
          [
            95.508801,
            27.895221
          ],
          [
            95.509176,
            27.895046
          ],
          [
            95.510089,
            27.894474
          ],
          [
            95.511015,
            27.893874
          ],
          [
            95.5113,
            27.893496
          ],
          [
            95.511739,
            27.892819
          ],
          [
            95.512243,
            27.892366
          ],
          [
            95.512973,
            27.891695
          ],
          [
            95.513609,
            27.89119
          ],
          [
            95.514021,
            27.890758
          ],
          [
            95.514289,
            27.890555
          ],
          [
            95.514639,
            27.890536
          ],
          [
            95.514865,
            27.890427
          ],
          [
            95.515402,
            27.890034
          ],
          [
            95.516011,
            27.889652
          ],
          [
            95.516722,
            27.889228
          ],
          [
            95.51834,
            27.888171
          ],
          [
            95.518937,
            27.888888
          ],
          [
            95.520067,
            27.890095
          ],
          [
            95.520609,
            27.890726
          ],
          [
            95.531142,
            27.902993
          ],
          [
            95.543157,
            27.917582
          ],
          [
            95.545636,
            27.921022
          ],
          [
            95.555647,
            27.936038
          ],
          [
            95.559747,
            27.941981
          ],
          [
            95.562311,
            27.946019
          ],
          [
            95.56494,
            27.949971
          ],
          [
            95.567118,
            27.95325
          ],
          [
            95.569221,
            27.956491
          ],
          [
            95.571613,
            27.959931
          ],
          [
            95.572702,
            27.96159
          ],
          [
            95.572435,
            27.961822
          ],
          [
            95.572104,
            27.962094
          ],
          [
            95.571938,
            27.962285
          ],
          [
            95.571754,
            27.962444
          ],
          [
            95.571456,
            27.962732
          ],
          [
            95.571353,
            27.962844
          ],
          [
            95.571092,
            27.962935
          ],
          [
            95.571055,
            27.963015
          ],
          [
            95.571108,
            27.963211
          ],
          [
            95.571265,
            27.963389
          ],
          [
            95.57132,
            27.963466
          ],
          [
            95.571279,
            27.963603
          ],
          [
            95.570353,
            27.96462
          ],
          [
            95.56914,
            27.965845
          ],
          [
            95.568813,
            27.966167
          ],
          [
            95.567367,
            27.967872
          ],
          [
            95.567147,
            27.968199
          ],
          [
            95.567029,
            27.968446
          ],
          [
            95.566657,
            27.969237
          ],
          [
            95.565058,
            27.972601
          ],
          [
            95.562859,
            27.976798
          ],
          [
            95.560573,
            27.981038
          ],
          [
            95.560557,
            27.981247
          ],
          [
            95.560885,
            27.983497
          ],
          [
            95.561281,
            27.986339
          ],
          [
            95.561566,
            27.989556
          ],
          [
            95.561855,
            27.992573
          ],
          [
            95.561383,
            27.994096
          ],
          [
            95.561104,
            27.994918
          ],
          [
            95.561086,
            27.995013
          ],
          [
            95.561161,
            27.995192
          ],
          [
            95.561807,
            27.995927
          ],
          [
            95.562078,
            27.996133
          ],
          [
            95.562193,
            27.996182
          ],
          [
            95.562424,
            27.996284
          ],
          [
            95.562615,
            27.996438
          ],
          [
            95.562695,
            27.99667
          ],
          [
            95.562733,
            27.996978
          ],
          [
            95.56317,
            27.997471
          ],
          [
            95.563881,
            27.998219
          ],
          [
            95.564892,
            27.999325
          ],
          [
            95.56568,
            28.00018
          ],
          [
            95.566109,
            28.000725
          ],
          [
            95.566673,
            28.001743
          ],
          [
            95.568078,
            28.00395
          ],
          [
            95.568526,
            28.004694
          ],
          [
            95.568695,
            28.004926
          ],
          [
            95.568832,
            28.00504
          ],
          [
            95.569041,
            28.005295
          ],
          [
            95.56946,
            28.006112
          ],
          [
            95.570109,
            28.007173
          ],
          [
            95.570476,
            28.007858
          ],
          [
            95.570685,
            28.008213
          ],
          [
            95.57065,
            28.008499
          ],
          [
            95.570532,
            28.008803
          ],
          [
            95.570224,
            28.010178
          ],
          [
            95.570133,
            28.010453
          ],
          [
            95.568872,
            28.012106
          ],
          [
            95.568073,
            28.013077
          ],
          [
            95.568067,
            28.013792
          ],
          [
            95.568491,
            28.015847
          ],
          [
            95.569162,
            28.017879
          ],
          [
            95.569902,
            28.019982
          ],
          [
            95.570771,
            28.022652
          ],
          [
            95.57142,
            28.024485
          ],
          [
            95.571774,
            28.025271
          ],
          [
            95.572236,
            28.02681
          ],
          [
            95.572541,
            28.027743
          ],
          [
            95.573539,
            28.029808
          ],
          [
            95.574215,
            28.031209
          ],
          [
            95.575535,
            28.032544
          ],
          [
            95.576634,
            28.033657
          ],
          [
            95.577874,
            28.03486
          ],
          [
            95.578582,
            28.035414
          ],
          [
            95.579204,
            28.035622
          ],
          [
            95.582294,
            28.036162
          ],
          [
            95.58406,
            28.036516
          ],
          [
            95.584676,
            28.036639
          ],
          [
            95.585094,
            28.03671
          ],
          [
            95.58593,
            28.036857
          ],
          [
            95.586256,
            28.03692
          ],
          [
            95.587382,
            28.03712
          ],
          [
            95.589651,
            28.037575
          ],
          [
            95.590646,
            28.037807
          ],
          [
            95.591695,
            28.038075
          ],
          [
            95.592159,
            28.0382
          ],
          [
            95.592476,
            28.038295
          ],
          [
            95.593739,
            28.038477
          ],
          [
            95.595769,
            28.038714
          ],
          [
            95.596099,
            28.038806
          ],
          [
            95.596317,
            28.038854
          ],
          [
            95.596491,
            28.038982
          ],
          [
            95.596826,
            28.038911
          ],
          [
            95.59729,
            28.038906
          ],
          [
            95.599385,
            28.039337
          ],
          [
            95.600481,
            28.039541
          ],
          [
            95.600639,
            28.039547
          ],
          [
            95.602067,
            28.039538
          ],
          [
            95.605042,
            28.039514
          ],
          [
            95.605314,
            28.03948
          ],
          [
            95.605541,
            28.039425
          ],
          [
            95.605755,
            28.039384
          ],
          [
            95.605932,
            28.039348
          ],
          [
            95.606579,
            28.039211
          ],
          [
            95.607587,
            28.0391
          ],
          [
            95.609121,
            28.039079
          ],
          [
            95.610017,
            28.038918
          ],
          [
            95.611015,
            28.038634
          ],
          [
            95.611718,
            28.038671
          ],
          [
            95.612544,
            28.038894
          ],
          [
            95.612844,
            28.039074
          ],
          [
            95.612941,
            28.039363
          ],
          [
            95.612893,
            28.040144
          ],
          [
            95.612673,
            28.04147
          ],
          [
            95.612598,
            28.042455
          ],
          [
            95.612876,
            28.042961
          ],
          [
            95.613273,
            28.043648
          ],
          [
            95.61345,
            28.043809
          ],
          [
            95.614421,
            28.044078
          ],
          [
            95.614931,
            28.044351
          ],
          [
            95.61514,
            28.044493
          ],
          [
            95.616334,
            28.045849
          ],
          [
            95.616725,
            28.046299
          ],
          [
            95.617393,
            28.046434
          ],
          [
            95.617898,
            28.046526
          ],
          [
            95.617683,
            28.048311
          ],
          [
            95.617361,
            28.050053
          ],
          [
            95.616251,
            28.052709
          ],
          [
            95.614408,
            28.056856
          ],
          [
            95.613166,
            28.059834
          ],
          [
            95.608606,
            28.070343
          ],
          [
            95.605624,
            28.077461
          ],
          [
            95.603725,
            28.081835
          ],
          [
            95.601676,
            28.086378
          ],
          [
            95.600399,
            28.089719
          ],
          [
            95.598789,
            28.093562
          ],
          [
            95.597062,
            28.098408
          ],
          [
            95.596483,
            28.100698
          ],
          [
            95.596375,
            28.103008
          ],
          [
            95.593908,
            28.109954
          ],
          [
            95.592159,
            28.115821
          ],
          [
            95.591923,
            28.116843
          ],
          [
            95.592063,
            28.117288
          ],
          [
            95.593168,
            28.118508
          ],
          [
            95.596161,
            28.120325
          ],
          [
            95.600045,
            28.122889
          ],
          [
            95.601254,
            28.123429
          ],
          [
            95.601729,
            28.123462
          ],
          [
            95.602024,
            28.123722
          ],
          [
            95.602276,
            28.123923
          ],
          [
            95.602617,
            28.124138
          ],
          [
            95.602947,
            28.12425
          ],
          [
            95.603269,
            28.124507
          ],
          [
            95.603532,
            28.124649
          ],
          [
            95.603655,
            28.12486
          ],
          [
            95.603628,
            28.12508
          ],
          [
            95.603682,
            28.125324
          ],
          [
            95.60369,
            28.125451
          ],
          [
            95.60358,
            28.125674
          ],
          [
            95.603642,
            28.125884
          ],
          [
            95.603894,
            28.126206
          ],
          [
            95.604449,
            28.12652
          ],
          [
            95.604798,
            28.127091
          ],
          [
            95.604942,
            28.12723
          ],
          [
            95.605246,
            28.127185
          ],
          [
            95.605364,
            28.127062
          ],
          [
            95.605423,
            28.126871
          ],
          [
            95.605594,
            28.12626
          ],
          [
            95.605779,
            28.125884
          ],
          [
            95.606048,
            28.125421
          ],
          [
            95.606199,
            28.125346
          ],
          [
            95.606713,
            28.125449
          ],
          [
            95.607159,
            28.125451
          ],
          [
            95.607434,
            28.12543
          ],
          [
            95.607808,
            28.125337
          ],
          [
            95.607936,
            28.125518
          ],
          [
            95.608124,
            28.125976
          ],
          [
            95.608397,
            28.126211
          ],
          [
            95.608604,
            28.126282
          ],
          [
            95.609154,
            28.126038
          ],
          [
            95.610157,
            28.125749
          ],
          [
            95.61068,
            28.125267
          ],
          [
            95.61127,
            28.124962
          ],
          [
            95.61134,
            28.124694
          ],
          [
            95.611592,
            28.12463
          ],
          [
            95.611814,
            28.12463
          ],
          [
            95.612048,
            28.124562
          ],
          [
            95.612332,
            28.124659
          ],
          [
            95.613711,
            28.124493
          ],
          [
            95.61992,
            28.123788
          ],
          [
            95.62652,
            28.122866
          ],
          [
            95.629911,
            28.12209
          ],
          [
            95.630962,
            28.121882
          ],
          [
            95.632979,
            28.122298
          ],
          [
            95.634727,
            28.1239
          ],
          [
            95.638558,
            28.127313
          ],
          [
            95.640103,
            28.128468
          ],
          [
            95.641316,
            28.129119
          ],
          [
            95.643979,
            28.130113
          ],
          [
            95.645856,
            28.131503
          ],
          [
            95.653517,
            28.143399
          ],
          [
            95.654631,
            28.144506
          ],
          [
            95.657473,
            28.147327
          ],
          [
            95.659301,
            28.149291
          ],
          [
            95.660829,
            28.151614
          ],
          [
            95.661589,
            28.152677
          ],
          [
            95.662554,
            28.156379
          ],
          [
            95.663121,
            28.158455
          ],
          [
            95.663765,
            28.160815
          ],
          [
            95.663897,
            28.161272
          ],
          [
            95.664333,
            28.160579
          ],
          [
            95.664867,
            28.159959
          ],
          [
            95.665272,
            28.159623
          ],
          [
            95.665915,
            28.159255
          ],
          [
            95.666269,
            28.159133
          ],
          [
            95.666607,
            28.159016
          ],
          [
            95.667649,
            28.158643
          ],
          [
            95.705442,
            28.145608
          ],
          [
            95.706419,
            28.145279
          ],
          [
            95.707149,
            28.14498
          ],
          [
            95.707954,
            28.14462
          ],
          [
            95.708969,
            28.14413
          ],
          [
            95.709916,
            28.143671
          ],
          [
            95.721412,
            28.138125
          ],
          [
            95.725233,
            28.136267
          ],
          [
            95.728179,
            28.134844
          ],
          [
            95.729738,
            28.134144
          ],
          [
            95.730438,
            28.133813
          ],
          [
            95.73121,
            28.133416
          ],
          [
            95.731977,
            28.132976
          ],
          [
            95.735211,
            28.130893
          ],
          [
            95.745033,
            28.124691
          ],
          [
            95.746451,
            28.123102
          ],
          [
            95.747772,
            28.121621
          ],
          [
            95.748564,
            28.121129
          ],
          [
            95.751538,
            28.120214
          ],
          [
            95.75287,
            28.119503
          ],
          [
            95.754324,
            28.118269
          ],
          [
            95.754657,
            28.117985
          ],
          [
            95.756171,
            28.116228
          ],
          [
            95.757896,
            28.115318
          ],
          [
            95.760327,
            28.114424
          ],
          [
            95.762078,
            28.114167
          ],
          [
            95.76731,
            28.114009
          ],
          [
            95.769892,
            28.113265
          ],
          [
            95.770634,
            28.113077
          ],
          [
            95.773558,
            28.112521
          ],
          [
            95.775598,
            28.111771
          ],
          [
            95.776863,
            28.111778
          ],
          [
            95.779359,
            28.111857
          ],
          [
            95.781527,
            28.112049
          ],
          [
            95.783362,
            28.111906
          ],
          [
            95.78469,
            28.111664
          ],
          [
            95.785622,
            28.111302
          ],
          [
            95.786322,
            28.111121
          ],
          [
            95.787207,
            28.110984
          ],
          [
            95.790367,
            28.111044
          ],
          [
            95.794595,
            28.111121
          ],
          [
            95.796586,
            28.11179
          ],
          [
            95.798113,
            28.111906
          ],
          [
            95.804016,
            28.111906
          ],
          [
            95.81007,
            28.111614
          ],
          [
            95.812952,
            28.112087
          ],
          [
            95.815399,
            28.113624
          ],
          [
            95.820102,
            28.115302
          ],
          [
            95.822274,
            28.117225
          ],
          [
            95.825863,
            28.120362
          ],
          [
            95.827146,
            28.121496
          ],
          [
            95.82891,
            28.123006
          ],
          [
            95.829266,
            28.123311
          ],
          [
            95.832331,
            28.126041
          ],
          [
            95.832789,
            28.12644
          ],
          [
            95.834517,
            28.127971
          ],
          [
            95.834734,
            28.128168
          ],
          [
            95.835463,
            28.12883
          ],
          [
            95.835728,
            28.129071
          ],
          [
            95.836448,
            28.12969
          ],
          [
            95.83757,
            28.130686
          ],
          [
            95.837675,
            28.130794
          ],
          [
            95.838999,
            28.131946
          ],
          [
            95.839803,
            28.132651
          ],
          [
            95.840256,
            28.133059
          ],
          [
            95.84259,
            28.135122
          ],
          [
            95.842678,
            28.135198
          ],
          [
            95.842814,
            28.135455
          ],
          [
            95.842877,
            28.135837
          ],
          [
            95.843037,
            28.136835
          ],
          [
            95.843089,
            28.137185
          ],
          [
            95.843114,
            28.137819
          ],
          [
            95.843173,
            28.13833
          ],
          [
            95.843358,
            28.139606
          ],
          [
            95.843061,
            28.140026
          ],
          [
            95.842763,
            28.140538
          ],
          [
            95.842794,
            28.140769
          ],
          [
            95.842891,
            28.141489
          ],
          [
            95.843073,
            28.14285
          ],
          [
            95.843115,
            28.143403
          ],
          [
            95.843164,
            28.143707
          ],
          [
            95.843278,
            28.143979
          ],
          [
            95.844413,
            28.146067
          ],
          [
            95.844818,
            28.145912
          ],
          [
            95.845042,
            28.14592
          ],
          [
            95.845363,
            28.145808
          ]
        ]
      },
      "leaflet_coordinates": [
        [
          28.066474,
          95.332435
        ],
        [
          28.06783,
          95.33198
        ],
        [
          28.068605,
          95.331759
        ],
        [
          28.068823,
          95.331697
        ],
        [
          28.070703,
          95.331161
        ],
        [
          28.070795,
          95.331135
        ],
        [
          28.071601,
          95.330894
        ],
        [
          28.072132,
          95.330735
        ],
        [
          28.073507,
          95.330324
        ],
        [
          28.073731,
          95.330249
        ],
        [
          28.073889,
          95.330131
        ],
        [
          28.074042,
          95.329915
        ],
        [
          28.074111,
          95.329839
        ],
        [
          28.07419,
          95.329688
        ],
        [
          28.074232,
          95.329563
        ],
        [
          28.074237,
          95.329395
        ],
        [
          28.074216,
          95.329234
        ],
        [
          28.074118,
          95.32901
        ],
        [
          28.073658,
          95.32795
        ],
        [
          28.073176,
          95.326768
        ],
        [
          28.073104,
          95.326624
        ],
        [
          28.072445,
          95.325314
        ],
        [
          28.072254,
          95.324935
        ],
        [
          28.071069,
          95.322576
        ],
        [
          28.076683,
          95.319994
        ],
        [
          28.077204,
          95.319568
        ],
        [
          28.077342,
          95.319403
        ],
        [
          28.078111,
          95.318475
        ],
        [
          28.078334,
          95.318202
        ],
        [
          28.078516,
          95.317845
        ],
        [
          28.078808,
          95.317227
        ],
        [
          28.079048,
          95.316639
        ],
        [
          28.079242,
          95.316372
        ],
        [
          28.079319,
          95.316273
        ],
        [
          28.079618,
          95.316096
        ],
        [
          28.079812,
          95.316065
        ],
        [
          28.080097,
          95.315956
        ],
        [
          28.080448,
          95.315852
        ],
        [
          28.080849,
          95.315786
        ],
        [
          28.081146,
          95.315766
        ],
        [
          28.081456,
          95.315779
        ],
        [
          28.08173,
          95.315821
        ],
        [
          28.081956,
          95.315842
        ],
        [
          28.083074,
          95.315948
        ],
        [
          28.083729,
          95.316013
        ],
        [
          28.084238,
          95.316064
        ],
        [
          28.085592,
          95.31624
        ],
        [
          28.08567,
          95.31625
        ],
        [
          28.086271,
          95.316264
        ],
        [
          28.086582,
          95.316259
        ],
        [
          28.086742,
          95.316217
        ],
        [
          28.086835,
          95.316122
        ],
        [
          28.086931,
          95.316008
        ],
        [
          28.08694,
          95.315983
        ],
        [
          28.086965,
          95.315914
        ],
        [
          28.086999,
          95.31582
        ],
        [
          28.087078,
          95.315348
        ],
        [
          28.087218,
          95.31444
        ],
        [
          28.087304,
          95.313873
        ],
        [
          28.087321,
          95.31376
        ],
        [
          28.087388,
          95.313304
        ],
        [
          28.087735,
          95.31156
        ],
        [
          28.088128,
          95.309036
        ],
        [
          28.088201,
          95.308562
        ],
        [
          28.088883,
          95.30564
        ],
        [
          28.089361,
          95.304026
        ],
        [
          28.089822,
          95.302833
        ],
        [
          28.090243,
          95.302853
        ],
        [
          28.092486,
          95.303199
        ],
        [
          28.095427,
          95.30371
        ],
        [
          28.102731,
          95.304936
        ],
        [
          28.105455,
          95.305431
        ],
        [
          28.106816,
          95.305684
        ],
        [
          28.107541,
          95.305809
        ],
        [
          28.107813,
          95.305891
        ],
        [
          28.108001,
          95.305993
        ],
        [
          28.108178,
          95.306122
        ],
        [
          28.108332,
          95.306248
        ],
        [
          28.108423,
          95.306352
        ],
        [
          28.108485,
          95.306422
        ],
        [
          28.108726,
          95.306846
        ],
        [
          28.10891,
          95.307304
        ],
        [
          28.109208,
          95.308247
        ],
        [
          28.109317,
          95.308653
        ],
        [
          28.109416,
          95.30912
        ],
        [
          28.109426,
          95.309165
        ],
        [
          28.10962,
          95.310345
        ],
        [
          28.10985,
          95.311658
        ],
        [
          28.109982,
          95.312031
        ],
        [
          28.110149,
          95.312285
        ],
        [
          28.110203,
          95.31235
        ],
        [
          28.110406,
          95.312593
        ],
        [
          28.110744,
          95.312968
        ],
        [
          28.11163,
          95.31394
        ],
        [
          28.114723,
          95.317258
        ],
        [
          28.115625,
          95.3183
        ],
        [
          28.116157,
          95.318962
        ],
        [
          28.116776,
          95.319608
        ],
        [
          28.119048,
          95.321808
        ],
        [
          28.124228,
          95.327227
        ],
        [
          28.139557,
          95.3446
        ],
        [
          28.140753,
          95.345789
        ],
        [
          28.141853,
          95.348099
        ],
        [
          28.144436,
          95.351765
        ],
        [
          28.144868,
          95.354302
        ],
        [
          28.14568,
          95.355947
        ],
        [
          28.147641,
          95.359967
        ],
        [
          28.148896,
          95.361502
        ],
        [
          28.150279,
          95.362832
        ],
        [
          28.150457,
          95.363285
        ],
        [
          28.150667,
          95.364227
        ],
        [
          28.150981,
          95.370605
        ],
        [
          28.151286,
          95.372678
        ],
        [
          28.152121,
          95.375764
        ],
        [
          28.152404,
          95.377041
        ],
        [
          28.15244,
          95.377471
        ],
        [
          28.152279,
          95.3781
        ],
        [
          28.151622,
          95.379845
        ],
        [
          28.149775,
          95.385101
        ],
        [
          28.149598,
          95.38575
        ],
        [
          28.149594,
          95.385919
        ],
        [
          28.149622,
          95.386066
        ],
        [
          28.14985,
          95.386377
        ],
        [
          28.150218,
          95.38678
        ],
        [
          28.15789,
          95.394192
        ],
        [
          28.161016,
          95.399101
        ],
        [
          28.165267,
          95.404335
        ],
        [
          28.165449,
          95.404532
        ],
        [
          28.165619,
          95.404791
        ],
        [
          28.165758,
          95.405047
        ],
        [
          28.165844,
          95.405382
        ],
        [
          28.165942,
          95.405877
        ],
        [
          28.166322,
          95.408095
        ],
        [
          28.163946,
          95.407158
        ],
        [
          28.162452,
          95.405664
        ],
        [
          28.160985,
          95.405046
        ],
        [
          28.154117,
          95.404689
        ],
        [
          28.153818,
          95.404762
        ],
        [
          28.153611,
          95.404917
        ],
        [
          28.146526,
          95.4125
        ],
        [
          28.14611,
          95.412979
        ],
        [
          28.140923,
          95.41896
        ],
        [
          28.136197,
          95.422013
        ],
        [
          28.135602,
          95.423007
        ],
        [
          28.122799,
          95.434011
        ],
        [
          28.115379,
          95.440577
        ],
        [
          28.111873,
          95.44505
        ],
        [
          28.102887,
          95.449913
        ],
        [
          28.100632,
          95.452611
        ],
        [
          28.093931,
          95.459856
        ],
        [
          28.091013,
          95.461222
        ],
        [
          28.090706,
          95.461238
        ],
        [
          28.090403,
          95.461159
        ],
        [
          28.090178,
          95.461128
        ],
        [
          28.090055,
          95.461246
        ],
        [
          28.089852,
          95.461535
        ],
        [
          28.089438,
          95.462217
        ],
        [
          28.089327,
          95.462332
        ],
        [
          28.08806,
          95.462891
        ],
        [
          28.081797,
          95.467577
        ],
        [
          28.077475,
          95.472794
        ],
        [
          28.077158,
          95.473085
        ],
        [
          28.076893,
          95.473359
        ],
        [
          28.076458,
          95.473605
        ],
        [
          28.072965,
          95.47425
        ],
        [
          28.070111,
          95.475939
        ],
        [
          28.069808,
          95.476127
        ],
        [
          28.069476,
          95.476245
        ],
        [
          28.068809,
          95.47625
        ],
        [
          28.068057,
          95.476093
        ],
        [
          28.06598,
          95.475279
        ],
        [
          28.056489,
          95.470487
        ],
        [
          28.051696,
          95.46999
        ],
        [
          28.048595,
          95.465589
        ],
        [
          28.047568,
          95.463826
        ],
        [
          28.046277,
          95.462998
        ],
        [
          28.038789,
          95.463778
        ],
        [
          28.03268,
          95.463991
        ],
        [
          28.028813,
          95.465076
        ],
        [
          28.028381,
          95.465078
        ],
        [
          28.027885,
          95.464969
        ],
        [
          28.023254,
          95.462201
        ],
        [
          28.022872,
          95.462074
        ],
        [
          28.022872,
          95.462074
        ],
        [
          28.02207,
          95.462126
        ],
        [
          28.020449,
          95.462748
        ],
        [
          28.018437,
          95.463809
        ],
        [
          28.011718,
          95.463467
        ],
        [
          28.010969,
          95.463564
        ],
        [
          28.010078,
          95.464077
        ],
        [
          28.009605,
          95.464306
        ],
        [
          28.009135,
          95.464529
        ],
        [
          28.008752,
          95.464691
        ],
        [
          28.008243,
          95.464844
        ],
        [
          28.007717,
          95.465061
        ],
        [
          28.007635,
          95.465113
        ],
        [
          28.007578,
          95.465194
        ],
        [
          28.00528,
          95.470126
        ],
        [
          28.002579,
          95.472067
        ],
        [
          28.002444,
          95.472121
        ],
        [
          28.002312,
          95.472133
        ],
        [
          27.999918,
          95.472043
        ],
        [
          27.999752,
          95.472083
        ],
        [
          27.999612,
          95.472185
        ],
        [
          27.99875,
          95.473557
        ],
        [
          27.998223,
          95.474755
        ],
        [
          27.998141,
          95.474874
        ],
        [
          27.998014,
          95.474995
        ],
        [
          27.996912,
          95.475703
        ],
        [
          27.9967,
          95.475915
        ],
        [
          27.995654,
          95.47739
        ],
        [
          27.995554,
          95.477633
        ],
        [
          27.995503,
          95.477831
        ],
        [
          27.995424,
          95.478336
        ],
        [
          27.995341,
          95.478787
        ],
        [
          27.995034,
          95.482575
        ],
        [
          27.995006,
          95.4827
        ],
        [
          27.994941,
          95.482797
        ],
        [
          27.994143,
          95.483787
        ],
        [
          27.993655,
          95.484069
        ],
        [
          27.99307,
          95.484463
        ],
        [
          27.992418,
          95.484753
        ],
        [
          27.992255,
          95.484785
        ],
        [
          27.992097,
          95.484777
        ],
        [
          27.991474,
          95.484581
        ],
        [
          27.991105,
          95.484501
        ],
        [
          27.99074,
          95.48457
        ],
        [
          27.990205,
          95.484721
        ],
        [
          27.989805,
          95.484786
        ],
        [
          27.989563,
          95.484788
        ],
        [
          27.98918,
          95.484792
        ],
        [
          27.989009,
          95.484765
        ],
        [
          27.986679,
          95.483682
        ],
        [
          27.986299,
          95.483664
        ],
        [
          27.98588,
          95.483733
        ],
        [
          27.978757,
          95.484929
        ],
        [
          27.978398,
          95.484865
        ],
        [
          27.977042,
          95.484435
        ],
        [
          27.976799,
          95.484429
        ],
        [
          27.976605,
          95.484505
        ],
        [
          27.975116,
          95.485223
        ],
        [
          27.974985,
          95.485265
        ],
        [
          27.974821,
          95.485289
        ],
        [
          27.974556,
          95.485241
        ],
        [
          27.968342,
          95.481185
        ],
        [
          27.968016,
          95.481072
        ],
        [
          27.967657,
          95.480982
        ],
        [
          27.962835,
          95.480731
        ],
        [
          27.954636,
          95.479369
        ],
        [
          27.954024,
          95.479334
        ],
        [
          27.953385,
          95.479464
        ],
        [
          27.944164,
          95.483239
        ],
        [
          27.919905,
          95.491335
        ],
        [
          27.919776,
          95.491399
        ],
        [
          27.919586,
          95.491555
        ],
        [
          27.918691,
          95.49222
        ],
        [
          27.918425,
          95.492409
        ],
        [
          27.918113,
          95.492531
        ],
        [
          27.915496,
          95.493143
        ],
        [
          27.915232,
          95.493245
        ],
        [
          27.914937,
          95.493443
        ],
        [
          27.913543,
          95.494999
        ],
        [
          27.912838,
          95.495554
        ],
        [
          27.912083,
          95.496029
        ],
        [
          27.911738,
          95.496312
        ],
        [
          27.911401,
          95.496493
        ],
        [
          27.909474,
          95.497051
        ],
        [
          27.908277,
          95.497678
        ],
        [
          27.907964,
          95.497976
        ],
        [
          27.907535,
          95.498429
        ],
        [
          27.90733,
          95.498603
        ],
        [
          27.90708,
          95.498703
        ],
        [
          27.906478,
          95.498799
        ],
        [
          27.905641,
          95.498864
        ],
        [
          27.904506,
          95.499253
        ],
        [
          27.903626,
          95.499601
        ],
        [
          27.903411,
          95.499645
        ],
        [
          27.903279,
          95.499651
        ],
        [
          27.903185,
          95.499634
        ],
        [
          27.902571,
          95.499282
        ],
        [
          27.902031,
          95.49896
        ],
        [
          27.901728,
          95.498775
        ],
        [
          27.901561,
          95.498743
        ],
        [
          27.90136,
          95.498757
        ],
        [
          27.901249,
          95.498794
        ],
        [
          27.901159,
          95.498864
        ],
        [
          27.900898,
          95.499172
        ],
        [
          27.900501,
          95.499412
        ],
        [
          27.900436,
          95.499458
        ],
        [
          27.900255,
          95.499591
        ],
        [
          27.899931,
          95.500106
        ],
        [
          27.899649,
          95.500572
        ],
        [
          27.899099,
          95.50094
        ],
        [
          27.898565,
          95.501289
        ],
        [
          27.898411,
          95.501468
        ],
        [
          27.898357,
          95.501688
        ],
        [
          27.898354,
          95.502174
        ],
        [
          27.898354,
          95.502664
        ],
        [
          27.898248,
          95.502992
        ],
        [
          27.898008,
          95.503523
        ],
        [
          27.897885,
          95.503901
        ],
        [
          27.897567,
          95.505089
        ],
        [
          27.897231,
          95.505738
        ],
        [
          27.897084,
          95.506049
        ],
        [
          27.896939,
          95.506154
        ],
        [
          27.896513,
          95.506855
        ],
        [
          27.896029,
          95.507047
        ],
        [
          27.89583,
          95.507391
        ],
        [
          27.895445,
          95.508071
        ],
        [
          27.895429,
          95.508156
        ],
        [
          27.895445,
          95.508224
        ],
        [
          27.895488,
          95.508294
        ],
        [
          27.895526,
          95.508371
        ],
        [
          27.895536,
          95.508466
        ],
        [
          27.895504,
          95.508568
        ],
        [
          27.895461,
          95.508654
        ],
        [
          27.895401,
          95.508712
        ],
        [
          27.895331,
          95.50873
        ],
        [
          27.89527,
          95.508754
        ],
        [
          27.895221,
          95.508801
        ],
        [
          27.895046,
          95.509176
        ],
        [
          27.894474,
          95.510089
        ],
        [
          27.893874,
          95.511015
        ],
        [
          27.893496,
          95.5113
        ],
        [
          27.892819,
          95.511739
        ],
        [
          27.892366,
          95.512243
        ],
        [
          27.891695,
          95.512973
        ],
        [
          27.89119,
          95.513609
        ],
        [
          27.890758,
          95.514021
        ],
        [
          27.890555,
          95.514289
        ],
        [
          27.890536,
          95.514639
        ],
        [
          27.890427,
          95.514865
        ],
        [
          27.890034,
          95.515402
        ],
        [
          27.889652,
          95.516011
        ],
        [
          27.889228,
          95.516722
        ],
        [
          27.888171,
          95.51834
        ],
        [
          27.888888,
          95.518937
        ],
        [
          27.890095,
          95.520067
        ],
        [
          27.890726,
          95.520609
        ],
        [
          27.902993,
          95.531142
        ],
        [
          27.917582,
          95.543157
        ],
        [
          27.921022,
          95.545636
        ],
        [
          27.936038,
          95.555647
        ],
        [
          27.941981,
          95.559747
        ],
        [
          27.946019,
          95.562311
        ],
        [
          27.949971,
          95.56494
        ],
        [
          27.95325,
          95.567118
        ],
        [
          27.956491,
          95.569221
        ],
        [
          27.959931,
          95.571613
        ],
        [
          27.96159,
          95.572702
        ],
        [
          27.961822,
          95.572435
        ],
        [
          27.962094,
          95.572104
        ],
        [
          27.962285,
          95.571938
        ],
        [
          27.962444,
          95.571754
        ],
        [
          27.962732,
          95.571456
        ],
        [
          27.962844,
          95.571353
        ],
        [
          27.962935,
          95.571092
        ],
        [
          27.963015,
          95.571055
        ],
        [
          27.963211,
          95.571108
        ],
        [
          27.963389,
          95.571265
        ],
        [
          27.963466,
          95.57132
        ],
        [
          27.963603,
          95.571279
        ],
        [
          27.96462,
          95.570353
        ],
        [
          27.965845,
          95.56914
        ],
        [
          27.966167,
          95.568813
        ],
        [
          27.967872,
          95.567367
        ],
        [
          27.968199,
          95.567147
        ],
        [
          27.968446,
          95.567029
        ],
        [
          27.969237,
          95.566657
        ],
        [
          27.972601,
          95.565058
        ],
        [
          27.976798,
          95.562859
        ],
        [
          27.981038,
          95.560573
        ],
        [
          27.981247,
          95.560557
        ],
        [
          27.983497,
          95.560885
        ],
        [
          27.986339,
          95.561281
        ],
        [
          27.989556,
          95.561566
        ],
        [
          27.992573,
          95.561855
        ],
        [
          27.994096,
          95.561383
        ],
        [
          27.994918,
          95.561104
        ],
        [
          27.995013,
          95.561086
        ],
        [
          27.995192,
          95.561161
        ],
        [
          27.995927,
          95.561807
        ],
        [
          27.996133,
          95.562078
        ],
        [
          27.996182,
          95.562193
        ],
        [
          27.996284,
          95.562424
        ],
        [
          27.996438,
          95.562615
        ],
        [
          27.99667,
          95.562695
        ],
        [
          27.996978,
          95.562733
        ],
        [
          27.997471,
          95.56317
        ],
        [
          27.998219,
          95.563881
        ],
        [
          27.999325,
          95.564892
        ],
        [
          28.00018,
          95.56568
        ],
        [
          28.000725,
          95.566109
        ],
        [
          28.001743,
          95.566673
        ],
        [
          28.00395,
          95.568078
        ],
        [
          28.004694,
          95.568526
        ],
        [
          28.004926,
          95.568695
        ],
        [
          28.00504,
          95.568832
        ],
        [
          28.005295,
          95.569041
        ],
        [
          28.006112,
          95.56946
        ],
        [
          28.007173,
          95.570109
        ],
        [
          28.007858,
          95.570476
        ],
        [
          28.008213,
          95.570685
        ],
        [
          28.008499,
          95.57065
        ],
        [
          28.008803,
          95.570532
        ],
        [
          28.010178,
          95.570224
        ],
        [
          28.010453,
          95.570133
        ],
        [
          28.012106,
          95.568872
        ],
        [
          28.013077,
          95.568073
        ],
        [
          28.013792,
          95.568067
        ],
        [
          28.015847,
          95.568491
        ],
        [
          28.017879,
          95.569162
        ],
        [
          28.019982,
          95.569902
        ],
        [
          28.022652,
          95.570771
        ],
        [
          28.024485,
          95.57142
        ],
        [
          28.025271,
          95.571774
        ],
        [
          28.02681,
          95.572236
        ],
        [
          28.027743,
          95.572541
        ],
        [
          28.029808,
          95.573539
        ],
        [
          28.031209,
          95.574215
        ],
        [
          28.032544,
          95.575535
        ],
        [
          28.033657,
          95.576634
        ],
        [
          28.03486,
          95.577874
        ],
        [
          28.035414,
          95.578582
        ],
        [
          28.035622,
          95.579204
        ],
        [
          28.036162,
          95.582294
        ],
        [
          28.036516,
          95.58406
        ],
        [
          28.036639,
          95.584676
        ],
        [
          28.03671,
          95.585094
        ],
        [
          28.036857,
          95.58593
        ],
        [
          28.03692,
          95.586256
        ],
        [
          28.03712,
          95.587382
        ],
        [
          28.037575,
          95.589651
        ],
        [
          28.037807,
          95.590646
        ],
        [
          28.038075,
          95.591695
        ],
        [
          28.0382,
          95.592159
        ],
        [
          28.038295,
          95.592476
        ],
        [
          28.038477,
          95.593739
        ],
        [
          28.038714,
          95.595769
        ],
        [
          28.038806,
          95.596099
        ],
        [
          28.038854,
          95.596317
        ],
        [
          28.038982,
          95.596491
        ],
        [
          28.038911,
          95.596826
        ],
        [
          28.038906,
          95.59729
        ],
        [
          28.039337,
          95.599385
        ],
        [
          28.039541,
          95.600481
        ],
        [
          28.039547,
          95.600639
        ],
        [
          28.039538,
          95.602067
        ],
        [
          28.039514,
          95.605042
        ],
        [
          28.03948,
          95.605314
        ],
        [
          28.039425,
          95.605541
        ],
        [
          28.039384,
          95.605755
        ],
        [
          28.039348,
          95.605932
        ],
        [
          28.039211,
          95.606579
        ],
        [
          28.0391,
          95.607587
        ],
        [
          28.039079,
          95.609121
        ],
        [
          28.038918,
          95.610017
        ],
        [
          28.038634,
          95.611015
        ],
        [
          28.038671,
          95.611718
        ],
        [
          28.038894,
          95.612544
        ],
        [
          28.039074,
          95.612844
        ],
        [
          28.039363,
          95.612941
        ],
        [
          28.040144,
          95.612893
        ],
        [
          28.04147,
          95.612673
        ],
        [
          28.042455,
          95.612598
        ],
        [
          28.042961,
          95.612876
        ],
        [
          28.043648,
          95.613273
        ],
        [
          28.043809,
          95.61345
        ],
        [
          28.044078,
          95.614421
        ],
        [
          28.044351,
          95.614931
        ],
        [
          28.044493,
          95.61514
        ],
        [
          28.045849,
          95.616334
        ],
        [
          28.046299,
          95.616725
        ],
        [
          28.046434,
          95.617393
        ],
        [
          28.046526,
          95.617898
        ],
        [
          28.048311,
          95.617683
        ],
        [
          28.050053,
          95.617361
        ],
        [
          28.052709,
          95.616251
        ],
        [
          28.056856,
          95.614408
        ],
        [
          28.059834,
          95.613166
        ],
        [
          28.070343,
          95.608606
        ],
        [
          28.077461,
          95.605624
        ],
        [
          28.081835,
          95.603725
        ],
        [
          28.086378,
          95.601676
        ],
        [
          28.089719,
          95.600399
        ],
        [
          28.093562,
          95.598789
        ],
        [
          28.098408,
          95.597062
        ],
        [
          28.100698,
          95.596483
        ],
        [
          28.103008,
          95.596375
        ],
        [
          28.109954,
          95.593908
        ],
        [
          28.115821,
          95.592159
        ],
        [
          28.116843,
          95.591923
        ],
        [
          28.117288,
          95.592063
        ],
        [
          28.118508,
          95.593168
        ],
        [
          28.120325,
          95.596161
        ],
        [
          28.122889,
          95.600045
        ],
        [
          28.123429,
          95.601254
        ],
        [
          28.123462,
          95.601729
        ],
        [
          28.123722,
          95.602024
        ],
        [
          28.123923,
          95.602276
        ],
        [
          28.124138,
          95.602617
        ],
        [
          28.12425,
          95.602947
        ],
        [
          28.124507,
          95.603269
        ],
        [
          28.124649,
          95.603532
        ],
        [
          28.12486,
          95.603655
        ],
        [
          28.12508,
          95.603628
        ],
        [
          28.125324,
          95.603682
        ],
        [
          28.125451,
          95.60369
        ],
        [
          28.125674,
          95.60358
        ],
        [
          28.125884,
          95.603642
        ],
        [
          28.126206,
          95.603894
        ],
        [
          28.12652,
          95.604449
        ],
        [
          28.127091,
          95.604798
        ],
        [
          28.12723,
          95.604942
        ],
        [
          28.127185,
          95.605246
        ],
        [
          28.127062,
          95.605364
        ],
        [
          28.126871,
          95.605423
        ],
        [
          28.12626,
          95.605594
        ],
        [
          28.125884,
          95.605779
        ],
        [
          28.125421,
          95.606048
        ],
        [
          28.125346,
          95.606199
        ],
        [
          28.125449,
          95.606713
        ],
        [
          28.125451,
          95.607159
        ],
        [
          28.12543,
          95.607434
        ],
        [
          28.125337,
          95.607808
        ],
        [
          28.125518,
          95.607936
        ],
        [
          28.125976,
          95.608124
        ],
        [
          28.126211,
          95.608397
        ],
        [
          28.126282,
          95.608604
        ],
        [
          28.126038,
          95.609154
        ],
        [
          28.125749,
          95.610157
        ],
        [
          28.125267,
          95.61068
        ],
        [
          28.124962,
          95.61127
        ],
        [
          28.124694,
          95.61134
        ],
        [
          28.12463,
          95.611592
        ],
        [
          28.12463,
          95.611814
        ],
        [
          28.124562,
          95.612048
        ],
        [
          28.124659,
          95.612332
        ],
        [
          28.124493,
          95.613711
        ],
        [
          28.123788,
          95.61992
        ],
        [
          28.122866,
          95.62652
        ],
        [
          28.12209,
          95.629911
        ],
        [
          28.121882,
          95.630962
        ],
        [
          28.122298,
          95.632979
        ],
        [
          28.1239,
          95.634727
        ],
        [
          28.127313,
          95.638558
        ],
        [
          28.128468,
          95.640103
        ],
        [
          28.129119,
          95.641316
        ],
        [
          28.130113,
          95.643979
        ],
        [
          28.131503,
          95.645856
        ],
        [
          28.143399,
          95.653517
        ],
        [
          28.144506,
          95.654631
        ],
        [
          28.147327,
          95.657473
        ],
        [
          28.149291,
          95.659301
        ],
        [
          28.151614,
          95.660829
        ],
        [
          28.152677,
          95.661589
        ],
        [
          28.156379,
          95.662554
        ],
        [
          28.158455,
          95.663121
        ],
        [
          28.160815,
          95.663765
        ],
        [
          28.161272,
          95.663897
        ],
        [
          28.160579,
          95.664333
        ],
        [
          28.159959,
          95.664867
        ],
        [
          28.159623,
          95.665272
        ],
        [
          28.159255,
          95.665915
        ],
        [
          28.159133,
          95.666269
        ],
        [
          28.159016,
          95.666607
        ],
        [
          28.158643,
          95.667649
        ],
        [
          28.145608,
          95.705442
        ],
        [
          28.145279,
          95.706419
        ],
        [
          28.14498,
          95.707149
        ],
        [
          28.14462,
          95.707954
        ],
        [
          28.14413,
          95.708969
        ],
        [
          28.143671,
          95.709916
        ],
        [
          28.138125,
          95.721412
        ],
        [
          28.136267,
          95.725233
        ],
        [
          28.134844,
          95.728179
        ],
        [
          28.134144,
          95.729738
        ],
        [
          28.133813,
          95.730438
        ],
        [
          28.133416,
          95.73121
        ],
        [
          28.132976,
          95.731977
        ],
        [
          28.130893,
          95.735211
        ],
        [
          28.124691,
          95.745033
        ],
        [
          28.123102,
          95.746451
        ],
        [
          28.121621,
          95.747772
        ],
        [
          28.121129,
          95.748564
        ],
        [
          28.120214,
          95.751538
        ],
        [
          28.119503,
          95.75287
        ],
        [
          28.118269,
          95.754324
        ],
        [
          28.117985,
          95.754657
        ],
        [
          28.116228,
          95.756171
        ],
        [
          28.115318,
          95.757896
        ],
        [
          28.114424,
          95.760327
        ],
        [
          28.114167,
          95.762078
        ],
        [
          28.114009,
          95.76731
        ],
        [
          28.113265,
          95.769892
        ],
        [
          28.113077,
          95.770634
        ],
        [
          28.112521,
          95.773558
        ],
        [
          28.111771,
          95.775598
        ],
        [
          28.111778,
          95.776863
        ],
        [
          28.111857,
          95.779359
        ],
        [
          28.112049,
          95.781527
        ],
        [
          28.111906,
          95.783362
        ],
        [
          28.111664,
          95.78469
        ],
        [
          28.111302,
          95.785622
        ],
        [
          28.111121,
          95.786322
        ],
        [
          28.110984,
          95.787207
        ],
        [
          28.111044,
          95.790367
        ],
        [
          28.111121,
          95.794595
        ],
        [
          28.11179,
          95.796586
        ],
        [
          28.111906,
          95.798113
        ],
        [
          28.111906,
          95.804016
        ],
        [
          28.111614,
          95.81007
        ],
        [
          28.112087,
          95.812952
        ],
        [
          28.113624,
          95.815399
        ],
        [
          28.115302,
          95.820102
        ],
        [
          28.117225,
          95.822274
        ],
        [
          28.120362,
          95.825863
        ],
        [
          28.121496,
          95.827146
        ],
        [
          28.123006,
          95.82891
        ],
        [
          28.123311,
          95.829266
        ],
        [
          28.126041,
          95.832331
        ],
        [
          28.12644,
          95.832789
        ],
        [
          28.127971,
          95.834517
        ],
        [
          28.128168,
          95.834734
        ],
        [
          28.12883,
          95.835463
        ],
        [
          28.129071,
          95.835728
        ],
        [
          28.12969,
          95.836448
        ],
        [
          28.130686,
          95.83757
        ],
        [
          28.130794,
          95.837675
        ],
        [
          28.131946,
          95.838999
        ],
        [
          28.132651,
          95.839803
        ],
        [
          28.133059,
          95.840256
        ],
        [
          28.135122,
          95.84259
        ],
        [
          28.135198,
          95.842678
        ],
        [
          28.135455,
          95.842814
        ],
        [
          28.135837,
          95.842877
        ],
        [
          28.136835,
          95.843037
        ],
        [
          28.137185,
          95.843089
        ],
        [
          28.137819,
          95.843114
        ],
        [
          28.13833,
          95.843173
        ],
        [
          28.139606,
          95.843358
        ],
        [
          28.140026,
          95.843061
        ],
        [
          28.140538,
          95.842763
        ],
        [
          28.140769,
          95.842794
        ],
        [
          28.141489,
          95.842891
        ],
        [
          28.14285,
          95.843073
        ],
        [
          28.143403,
          95.843115
        ],
        [
          28.143707,
          95.843164
        ],
        [
          28.143979,
          95.843278
        ],
        [
          28.146067,
          95.844413
        ],
        [
          28.145912,
          95.844818
        ],
        [
          28.14592,
          95.845042
        ],
        [
          28.145808,
          95.845363
        ]
      ]
    }
  ]
}